E-SPACE_L_00018024-139
1 50584U 22453CM  26070.40817130  .00000000  00000+0  00000-0 0  9996
2 50584  72.0000 230.0000 0000000   0.0000 140.5556 14.86302671    13
E-SPACE_L_00018024-140
1 50585U 26014BG  26070.40817130  .00000000  00000+0  00000-0 0  9994
2 50585  72.0000 230.0000 0000000   0.0000 141.5556 14.86302671    15
E-SPACE_L_00018024-141
1 50586U 23349TY  26070.40817130  .00000000  00000+0  00000-0 0  9993
2 50586  72.0000 230.0000 0000000   0.0000 142.5556 14.86302671    17
E-SPACE_L_00018024-142
1 50587U 25839LS  26070.40817130  .00000000  00000+0  00000-0 0  9990
2 50587  72.0000 230.0000 0000000   0.0000 143.5556 14.86302671    19
E-SPACE_L_00018024-143
1 50588U 26023GS  26070.40817130  .00000000  00000+0  00000-0 0  9997
2 50588  72.0000 230.0000 0000000   0.0000 144.5556 14.86302671    11
E-SPACE_L_00018024-144
1 50589U 23787HT  26070.40817130  .00000000  00000+0  00000-0 0  9992
2 50589  72.0000 230.0000 0000000   0.0000 145.5556 14.86302671    13
E-SPACE_L_00018024-145
1 50590U 25545IN  26070.40817130  .00000000  00000+0  00000-0 0  9998
2 50590  72.0000 230.0000 0000000   0.0000 146.5556 14.86302671    16
E-SPACE_L_00018024-146
1 50591U 24584LK  26070.40817130  .00000000  00000+0  00000-0 0  9991
2 50591  72.0000 230.0000 0000000   0.0000 147.5556 14.86302671    18
E-SPACE_L_00018024-147
1 50592U 25570XY  26070.40817130  .00000000  00000+0  00000-0 0  9998
2 50592  72.0000 230.0000 0000000   0.0000 148.5556 14.86302671    10
E-SPACE_L_00018024-148
1 50593U 25344FI  26070.40817130  .00000000  00000+0  00000-0 0  9998
2 50593  72.0000 230.0000 0000000   0.0000 149.5556 14.86302671    12
E-SPACE_L_00018024-149
1 50594U 23012EJ  26070.40817130  .00000000  00000+0  00000-0 0  9999
2 50594  72.0000 230.0000 0000000   0.0000 150.5556 14.86302671    15
E-SPACE_L_00018024-150
1 50595U 23917JO  26070.40817130  .00000000  00000+0  00000-0 0  9994
2 50595  72.0000 230.0000 0000000   0.0000 151.5556 14.86302671    17
E-SPACE_L_00018024-151
1 50596U 26357RM  26070.40817130  .00000000  00000+0  00000-0 0  9996
2 50596  72.0000 230.0000 0000000   0.0000 152.5556 14.86302671    19
E-SPACE_L_00018024-152
1 50597U 23720CT  26070.40817130  .00000000  00000+0  00000-0 0  9998
2 50597  72.0000 230.0000 0000000   0.0000 153.5556 14.86302671    11
E-SPACE_L_00018024-153
1 50598U 26247IU  26070.40817130  .00000000  00000+0  00000-0 0  9996
2 50598  72.0000 230.0000 0000000   0.0000 154.5556 14.86302671    13
E-SPACE_L_00018024-154
1 50599U 25854OV  26070.40817130  .00000000  00000+0  00000-0 0  9990
2 50599  72.0000 230.0000 0000000   0.0000 155.5556 14.86302671    15
E-SPACE_L_00018024-155
1 50600U 25273FV  26070.40817130  .00000000  00000+0  00000-0 0  9998
2 50600  72.0000 230.0000 0000000   0.0000 156.5556 14.86302671    19
E-SPACE_L_00018024-156
1 50601U 26375WJ  26070.40817130  .00000000  00000+0  00000-0 0  9993
2 50601  72.0000 230.0000 0000000   0.0000 157.5556 14.86302671    11
E-SPACE_L_00018024-157
1 50602U 25454YN  26070.40817130  .00000000  00000+0  00000-0 0  9991
2 50602  72.0000 230.0000 0000000   0.0000 158.5556 14.86302671    13
E-SPACE_L_00018024-158
1 50603U 26922AN  26070.40817130  .00000000  00000+0  00000-0 0  9993
2 50603  72.0000 230.0000 0000000   0.0000 159.5556 14.86302671    15
E-SPACE_L_00018024-159
1 50604U 22755AG  26070.40817130  .00000000  00000+0  00000-0 0  9994
2 50604  72.0000 230.0000 0000000   0.0000 160.5556 14.86302671    18
E-SPACE_L_00018024-160
1 50605U 23112AE  26070.40817130  .00000000  00000+0  00000-0 0  9993
2 50605  72.0000 230.0000 0000000   0.0000 161.5556 14.86302671    10
E-SPACE_L_00018024-161
1 50606U 25125RZ  26070.40817130  .00000000  00000+0  00000-0 0  9990
2 50606  72.0000 230.0000 0000000   0.0000 162.5556 14.86302671    12
E-SPACE_L_00018024-162
1 50607U 26714GM  26070.40817130  .00000000  00000+0  00000-0 0  9996
2 50607  72.0000 230.0000 0000000   0.0000 163.5556 14.86302671    14
E-SPACE_L_00018024-163
1 50608U 26683LQ  26070.40817130  .00000000  00000+0  00000-0 0  9992
2 50608  72.0000 230.0000 0000000   0.0000 164.5556 14.86302671    16
E-SPACE_L_00018024-164
1 50609U 24657DC  26070.40817130  .00000000  00000+0  00000-0 0  9992
2 50609  72.0000 230.0000 0000000   0.0000 165.5556 14.86302671    18
E-SPACE_L_00018024-165
1 50610U 23370PX  26070.40817130  .00000000  00000+0  00000-0 0  9995
2 50610  72.0000 230.0000 0000000   0.0000 166.5556 14.86302671    11
E-SPACE_L_00018024-166
1 50611U 22820ZS  26070.40817130  .00000000  00000+0  00000-0 0  9995
2 50611  72.0000 230.0000 0000000   0.0000 167.5556 14.86302671    13
E-SPACE_L_00018024-167
1 50612U 23053UG  26070.40817130  .00000000  00000+0  00000-0 0  9995
2 50612  72.0000 230.0000 0000000   0.0000 168.5556 14.86302671    15
E-SPACE_L_00018024-168
1 50613U 25838UO  26070.40817130  .00000000  00000+0  00000-0 0  9999
2 50613  72.0000 230.0000 0000000   0.0000 169.5556 14.86302671    17
E-SPACE_L_00018024-169
1 50614U 26887SQ  26070.40817130  .00000000  00000+0  00000-0 0  9995
2 50614  72.0000 230.0000 0000000   0.0000 170.5556 14.86302671    10
E-SPACE_L_00018024-170
1 50615U 24061VK  26070.40817130  .00000000  00000+0  00000-0 0  9998
2 50615  72.0000 230.0000 0000000   0.0000 171.5556 14.86302671    12
E-SPACE_L_00018024-171
1 50616U 24026MJ  26070.40817130  .00000000  00000+0  00000-0 0  9990
2 50616  72.0000 230.0000 0000000   0.0000 172.5556 14.86302671    14
E-SPACE_L_00018024-172
1 50617U 25408WM  26070.40817130  .00000000  00000+0  00000-0 0  9996
2 50617  72.0000 230.0000 0000000   0.0000 173.5556 14.86302671    16
E-SPACE_L_00018024-173
1 50618U 24196XA  26070.40817130  .00000000  00000+0  00000-0 0  9990
2 50618  72.0000 230.0000 0000000   0.0000 174.5556 14.86302671    18
E-SPACE_L_00018024-174
1 50619U 26259MD  26070.40817130  .00000000  00000+0  00000-0 0  9993
2 50619  72.0000 230.0000 0000000   0.0000 175.5556 14.86302671    10
E-SPACE_L_00018024-175
1 50620U 24617UU  26070.40817130  .00000000  00000+0  00000-0 0  9991
2 50620  72.0000 230.0000 0000000   0.0000 176.5556 14.86302671    13
E-SPACE_L_00018024-176
1 50621U 23518BN  26070.40817130  .00000000  00000+0  00000-0 0  9991
2 50621  72.0000 230.0000 0000000   0.0000 177.5556 14.86302671    15
E-SPACE_L_00018024-177
1 50622U 22438GV  26070.40817130  .00000000  00000+0  00000-0 0  9992
2 50622  72.0000 230.0000 0000000   0.0000 178.5556 14.86302671    17
E-SPACE_L_00018024-178
1 50623U 23547KO  26070.40817130  .00000000  00000+0  00000-0 0  9995
2 50623  72.0000 230.0000 0000000   0.0000 179.5556 14.86302671    19
E-SPACE_L_00018024-179
1 50624U 25189XG  26070.40817130  .00000000  00000+0  00000-0 0  9990
2 50624  72.0000 230.0000 0000000   0.0000 180.5556 14.86302671    12
E-SPACE_L_00018024-180
1 50625U 26382XR  26070.40817130  .00000000  00000+0  00000-0 0  9997
2 50625  72.0000 230.0000 0000000   0.0000 181.5556 14.86302671    14
E-SPACE_L_00018024-181
1 50626U 22115HK  26070.40817130  .00000000  00000+0  00000-0 0  9998
2 50626  72.0000 230.0000 0000000   0.0000 182.5556 14.86302671    16
E-SPACE_L_00018024-182
1 50627U 26095TE  26070.40817130  .00000000  00000+0  00000-0 0  9990
2 50627  72.0000 230.0000 0000000   0.0000 183.5556 14.86302671    18
E-SPACE_L_00018024-183
1 50628U 22268ZW  26070.40817130  .00000000  00000+0  00000-0 0  9999
2 50628  72.0000 230.0000 0000000   0.0000 184.5556 14.86302671    10
E-SPACE_L_00018024-184
1 50629U 24344WF  26070.40817130  .00000000  00000+0  00000-0 0  9997
2 50629  72.0000 230.0000 0000000   0.0000 185.5556 14.86302671    12
E-SPACE_L_00018024-185
1 50630U 22596QI  26070.40817130  .00000000  00000+0  00000-0 0  9996
2 50630  72.0000 230.0000 0000000   0.0000 186.5556 14.86302671    15
E-SPACE_L_00018024-186
1 50631U 25876RZ  26070.40817130  .00000000  00000+0  00000-0 0  9991
2 50631  72.0000 230.0000 0000000   0.0000 187.5556 14.86302671    17
E-SPACE_L_00018024-187
1 50632U 23118GU  26070.40817130  .00000000  00000+0  00000-0 0  9999
2 50632  72.0000 230.0000 0000000   0.0000 188.5556 14.86302671    19
E-SPACE_L_00018024-188
1 50633U 26402J   26070.40817130  .00000000  00000+0  00000-0 0  9999
2 50633  72.0000 230.0000 0000000   0.0000 189.5556 14.86302671    11
E-SPACE_L_00018024-189
1 50634U 24868JP  26070.40817130  .00000000  00000+0  00000-0 0  9994
2 50634  72.0000 230.0000 0000000   0.0000 190.5556 14.86302671    14
E-SPACE_L_00018024-190
1 50635U 26174HL  26070.40817130  .00000000  00000+0  00000-0 0  9997
2 50635  72.0000 230.0000 0000000   0.0000 191.5556 14.86302671    16
E-SPACE_L_00018024-191
1 50636U 22680ZM  26070.40817130  .00000000  00000+0  00000-0 0  9996
2 50636  72.0000 230.0000 0000000   0.0000 192.5556 14.86302671    18
E-SPACE_L_00018024-192
1 50637U 25502IO  26070.40817130  .00000000  00000+0  00000-0 0  9993
2 50637  72.0000 230.0000 0000000   0.0000 193.5556 14.86302671    10
E-SPACE_L_00018024-193
1 50638U 23918UW  26070.40817130  .00000000  00000+0  00000-0 0  9993
2 50638  72.0000 230.0000 0000000   0.0000 194.5556 14.86302671    12
E-SPACE_L_00018024-194
1 50639U 23882EA  26070.40817130  .00000000  00000+0  00000-0 0  9994
2 50639  72.0000 230.0000 0000000   0.0000 195.5556 14.86302671    14
E-SPACE_L_00018024-195
1 50640U 24239FJ  26070.40817130  .00000000  00000+0  00000-0 0  9993
2 50640  72.0000 230.0000 0000000   0.0000 196.5556 14.86302671    17
E-SPACE_L_00018024-196
1 50641U 25509AZ  26070.40817130  .00000000  00000+0  00000-0 0  9995
2 50641  72.0000 230.0000 0000000   0.0000 197.5556 14.86302671    19
E-SPACE_L_00018024-197
1 50642U 23481HE  26070.40817130  .00000000  00000+0  00000-0 0  9993
2 50642  72.0000 230.0000 0000000   0.0000 198.5556 14.86302671    11
E-SPACE_L_00018024-198
1 50643U 23623JD  26070.40817130  .00000000  00000+0  00000-0 0  9992
2 50643  72.0000 230.0000 0000000   0.0000 199.5556 14.86302671    13
E-SPACE_L_00018024-199
1 50644U 26013IX  26070.40817130  .00000000  00000+0  00000-0 0  9999
2 50644  72.0000 230.0000 0000000   0.0000 200.5556 14.86302671    17
